{
"restaurants":[
{
"id":1,
"URL":"https://blogs-images.forbes.com/nickpassmore/files/2015/07/chinese.jpg",
"_id":{"$oid":"55f14312c7447c3da7051b26"},
"address":"228 City Road",
"address line 2":"Cardiff",
"name":".CN Chinese",
"outcode":"CF24",
"postcode":"3JH",
"rating":5,
"type_of_food":"Chinese"},
{
     "id":2,
     "URL":"https://www.chefsmove.org/wp-content/uploads/2020/03/Untitled-1.jpg",
     "_id":{"$oid":"55f14312c7447c3da7051b28"},
     "address":"30 Greyhound Road Hammersmith",
     "address line 2":"London",
     "name":"SoRestaurant",
     "outcode":"W6","postcode":"8NX",
     "rating":4.5,
     "type_of_food":"Thai"},
{  "id":3,"URL":"https://th.bing.com/th/id/R.ef3029b0ea98e77e9c92852e166e2777?rik=gbWvcrYyQ0VWRg&riu=http%3a%2f%2fwww.libertyvillagetoronto.com%2fwp-content%2fuploads%2f2013%2f12%2fchinese-food.jpg&ehk=v0YYiNQZzX5SGhna3DZdWECE3mZ%2fdZ1sPPfjCb8ZbZs%3d&risl=&pid=ImgRaw&r=0","_id":{"$oid":"55f14312c7447c3da7051b29"},"address":"30 Greyhound Road Hammersmith","address line 2":"London","name":"@ Thai Restaurant","outcode":"W6","postcode":"8NX","rating":4.5,"type_of_food":"Thai"},
{  "id":4,"URL":"https://th.bing.com/th/id/OIP.sIagdvhir7O8pEcCZeT3pwHaJQ?pid=ImgDet&rs=1","_id":{"$oid":"55f14312c7447c3da7051b2a"},"address":"9 Broughton Hall Road","address line 2":"Broughton","name":"@Indian.com","outcode":"CH4","postcode":"0QR","rating":6,"type_of_food":"Curry-Rice"},
{  "id":5,"URL":"https://th.bing.com/th/id/OIP.eWEiLdq83Odm9eSgqazg7AHaHa?pid=ImgDet&rs=1","_id":{"$oid":"55f14312c7447c3da7051b2c"},"address":"885 High Road Leytonstone","address line 2":"London","name":"042 Restaurant \u0026 Bar","outcode":"E11","postcode":"1HR","rating":3,"type_of_food":"American cusine"},
{  "id":6,"URL":"https://i.pinimg.com/originals/98/2d/b1/982db14a4cce4a65c58ba5723d74a0bd.jpg","_id":{"$oid":"55f14312c7447c3da7051b2d"},"address":"885 High Road Leytonstone","address line 2":"London","name":"042 Restaurant \u0026 Bar","outcode":"E11","postcode":"1HR","rating":3,"type_of_food":"African"},
{  "id":7,"URL":"https://media-cdn.tripadvisor.com/media/photo-s/12/bf/15/8b/le-royal-burger-tradition.jpg","_id":{"$oid":"55f14312c7447c3da7051b2e"},"address":"885 High Road Leytonstone","address line 2":"London","name":"042 Restaurant \u0026 Bar","outcode":"E11","postcode":"1HR","rating":3,"type_of_food":"double patty burger"},
{  "id":8,"URL":"https://c.pxhere.com/photos/6d/81/Pasta_Pastas-1611881.jpg!d","_id":{"$oid":"55f14312c7447c3da7051b2f"},"address":"Unit 4 Spencer House","address line 2":"Swalwell","name":"1 2 3 Chinese","outcode":"NE16","postcode":"3DS","rating":4.5,"type_of_food":"Chinese"},
{"id":9,"URL":"https://th.bing.com/th/id/OIP.qftZsxZOiLvIm7YUAWjW-gHaFj?pid=ImgDet&rs=1","_id":{"$oid":"55f14312c7447c3da7051b30"},"address":"Avenue Park Street","address line 2":"Swalwell","name":" tally vibe","outcode":"NE16","postcode":"3DS","rating":4.5,"type_of_food":"italian"},
{  "id":10,"URL":"https://th.bing.com/th/id/OIP.iUb6xsf4ZiO_NbhoqnQlpAHaFd?pid=ImgDet&w=800&h=590&rs=1","_id":{"$oid":"55f14312c7447c3da7051b3b"},"address":"1 Walsall Road","address line 2":"Cannock","name":"1st Choice Pizza","outcode":"WS11","postcode":"0HG","rating":4,"type_of_food":"Pizza"},

{  "id":11,"URL":"https://th.bing.com/th/id/OIP.74e2xVL994sapo339_Cu1wHaFj?pid=ImgDet&rs=1","_id":{"$oid":"55f14312c7447c3da7051b31"},"address":"67 Park Street","address line 2":"Treforest","name":"100 Degrees Chinese Restaurant","outcode":"CF37","postcode":"1SN","rating":5,"type_of_food":"chicken steak"},
{  "id":12,"URL":"https://th.bing.com/th/id/OIP.REvxtXA0hsJFulGZsK_f-AHaFj?pid=ImgDet&w=960&h=720&rs=1","_id":{"$oid":"55f14312c7447c3da7051b32"},"address":"50 Wallgate","address line 2":"Wigan","name":"100 Menu","outcode":"WN1","postcode":"1JU","rating":5,"type_of_food":"beef double grill steak"},
{  "id":13,"URL":"https://th.bing.com/th/id/OIP.fguJPNtFZp93MSfZEcFqNwHaLH?pid=ImgDet&w=600&h=900&rs=1","_id":{"$oid":"55f14312c7447c3da7051b3a"},"address":"160 Leeds Road","address line 2":"Leeds","name":"cocktail","outcode":"LS26","postcode":"0JH","rating":4,"type_of_food":"drink-shake"},
{  "id":14,"URL":"https://th.bing.com/th/id/OIP.IVRpvnQgFSKD1QRlJd-fXwHaHa?pid=ImgDet&w=500&h=500&rs=1","_id":{"$oid":"55f14312c7447c3da7051b34"},"address":"109 Westbourne Park Road","address line 2":"London","name":"109 Ristorante","outcode":"W2","postcode":"5QL","rating":5,"type_of_food":"Multi-layer Sandwich"},
{  "id":15,"URL":"https://i1.wp.com/www.bebejaz.com/wp-content/uploads/2017/04/Jumbo-Shrimp-Thermidor-by-Jaz.jpg?resize=800%2C600&ssl=1", "address":"Unit 2 30 Greenock Road", "address line 2":"Bishopton","_id":{"$oid":"55f14312c7447c3da7051b35"},"name":"113 Fish Bar","outcode":"CH44","postcode":"9DE","rating":5.5,"type_of_food":"Chinese Stuff lobster"},
{  "id":16,"URL":"https://th.bing.com/th/id/OIP._3gomuTlod-DG5VmbS-PKwAAAA?pid=ImgDet&w=348&h=348&rs=1","_id":{"$oid":"55f14312c7447c3da7051b36"},"address":"133 Fullarton Street","address line 2":"Irvine","name":"133 Takeaway","outcode":"KA12","postcode":"8DG","rating":"Not yet rated","type_of_food":"Breakfast"},
{  "id":17,"URL":"https://th.bing.com/th/id/OIP.Nb9qXz5FB51noSyRL2k9yAHaLH?pid=ImgDet&rs=1","_id":{"$oid":"55f14312c7447c3da7051b37"},"address":"Red Lion Hotel","address line 2":"Spalding","name":"1498 The Spice Affair","outcode":"PE11","postcode":"1SU","rating":5.5,"type_of_food":"Curry"},
{  "id":19,"URL":"https://th.bing.com/th/id/OIP.7_z0VBCiT3-wj51j29PoRQAAAA?pid=ImgDet&w=339&h=450&rs=1","_id":{"$oid":"55f14312c7447c3da7051b38"},"address":"17 Alexandra Road","address line 2":"West Yorkshire","name":"168 Chinese \u0026 Cantonese Takeaway","outcode":"LS18","postcode":"4HE","rating":5.5,"type_of_food":"Chinese Milkshake"},
{  "id":20,"URL":"https://th.bing.com/th/id/OIP.jHnZwNZ5sOBwjCRJdWBDxQAAAA?pid=ImgDet&rs=1","name":"1A Wok","outcode":"PA7","postcode":"5JN","rating":5,"type_of_food":"Chinese"},
{  "id":21,"URL":"https://th.bing.com/th/id/OIP.Mjm7tV7NqarH17g1X3WkzwHaE1?pid=ImgDet&rs=1","_id":{"$oid":"55f14312c7447c3da7051b3b"},"address":"1 Walsall Road","address line 2":"Cannock","name":"1st Choice Pizza","outcode":"WS11","postcode":"0HG","rating":4,"type_of_food":"Pizza"},
{  "id":22,"URL":"https://images.pexels.com/photos/1564534/pexels-photo-1564534.jpeg?auto=compress&cs=tinysrgb&dpr=1&w=500","_id":{"$oid":"55f14312c7447c3da7051b3b"},"address":"1 Walsall Road","address line 2":"Cannock","name":"1st Choice Pizza","outcode":"WS11","postcode":"0HG","rating":4,"type_of_food":"mojito vodka"}
]}